[{"OBJECT_NAME":"OBJECT T","OBJECT_ID":"2023-091T","EPOCH":"2026-03-09T23:10:06.810240","MEAN_MOTION":15.18017274,"ECCENTRICITY":0.00130499,"INCLINATION":97.5213,"RA_OF_ASC_NODE":128.2106,"ARG_OF_PERICENTER":96.0756,"MEAN_ANOMALY":264.1965,"EPHEMERIS_TYPE":0,"CLASSIFICATION_TYPE":"U","NORAD_CAT_ID":57183,"ELEMENT_SET_NO":999,"REV_AT_EPOCH":14891,"BSTAR":0.00032998025,"MEAN_MOTION_DOT":6.659e-5,"MEAN_MOTION_DDOT":0},{"OBJECT_NAME":"HYPERFIELD-1B","OBJECT_ID":"2025-135AA","EPOCH":"2026-03-09T21:55:06.230784","MEAN_MOTION":15.21415423,"ECCENTRICITY":5.345e-5,"INCLINATION":97.4541,"RA_OF_ASC_NODE":185.0442,"ARG_OF_PERICENTER":81.1107,"MEAN_ANOMALY":279.0189,"EPHEMERIS_TYPE":0,"CLASSIFICATION_TYPE":"U","NORAD_CAT_ID":64552,"ELEMENT_SET_NO":999,"REV_AT_EPOCH":3978,"BSTAR":0.00030259175,"MEAN_MOTION_DOT":6.723e-5,"MEAN_MOTION_DDOT":0}]
